{
  "norad_id": 59132,
  "name": "LIZZIESAT-1 (LS-1)",
  "history": [
    {
      "epoch": "2026-03-28T21:34:52.846464Z",
      "apogee_km": 493.07894427370593,
      "perigee_km": 477.4413801792898,
      "latitude_deg": -2.450540744333007e-06,
      "longitude_deg": 72.65815640079522,
      "height_km": 495.7592179743083,
      "semi_major_axis_km": 6863.397162226498,
      "eccentricity": 0.0011392,
      "inclination_deg": 97.5493,
      "raan_deg": 222.6914,
      "arg_perigee_deg": 161.3514,
      "mean_anomaly_deg": 198.8144,
      "mean_motion_rev_day": 15.26841887
    }
  ]
}