{"fetched_at":"2026-03-30T06:02:59Z","count":15439,"tles":[{"name":"LIZZIESAT-1 (LS-1)","line1":"1 59132U 24043AL  26087.89922276  .00005973  00000+0  22896-3 0  9994","line2":"2 59132  97.5493 222.6914 0011392 161.3514 198.8144 15.26841887114687","category":"Other"}]}